{"type": "FeatureCollection", "features": [ {"type": "Feature", "properties": {"norad_id": 33867, "name": "IRIDIUM 33 DEB", "group": "iridium-33-debris", "lat": 21.445735192673787, "lon": -9.203523875553282, "alt_km": 352.00993421024214, "timestamp": "2025-12-14T03:55:53.172373+00:00", "meta": {"OBJECT_NAME": "IRIDIUM 33 DEB", "OBJECT_ID": "1997-051AL", "EPOCH": "2025-12-13T00:17:57.337152", "MEAN_MOTION": 15.68448649, "ECCENTRICITY": 0.00133514, "INCLINATION": 86.3647, "RA_OF_ASC_NODE": 349.9645, "ARG_OF_PERICENTER": 88.5689, "MEAN_ANOMALY": 271.711, "EPHEMERIS_TYPE": 0, "CLASSIFICATION_TYPE": "U", "NORAD_CAT_ID": 33867, "ELEMENT_SET_NO": 999, "REV_AT_EPOCH": 89515, "BSTAR": 0.0092270239, "MEAN_MOTION_DOT": 0.01147185, "MEAN_MOTION_DDOT": 0}, "tle": {"line1": "1 33867U 97051AL  25347.01246918  .01147185  00000+0  92270-2 0  9999", "line2": "2 33867  86.3647 349.9645 0013351  88.5689 271.7110 15.68448649895152"}}, "geometry": {"type": "Point", "coordinates": [-9.203523875553282, 21.445735192673787]}}, {"type": "Feature", "properties": {"norad_id": 33870, "name": "IRIDIUM 33 DEB", "group": "iridium-33-debris", "lat": 5.929975594974156, "lon": -122.72690422640115, "alt_km": 726.1203027154525, "timestamp": "2025-12-14T03:55:53.172384+00:00", "meta": {"OBJECT_NAME": "IRIDIUM 33 DEB", "OBJECT_ID": "1997-051AP", "EPOCH": "2025-12-13T05:48:32.308704", "MEAN_MOTION": 14.4585808, "ECCENTRICITY": 0.00215266, "INCLINATION": 86.3747, "RA_OF_ASC_NODE": 58.0454, "ARG_OF_PERICENTER": 176.4535, "MEAN_ANOMALY": 242.6434, "EPHEMERIS_TYPE": 0, "CLASSIFICATION_TYPE": "U", "NORAD_CAT_ID": 33870, "ELEMENT_SET_NO": 999, "REV_AT_EPOCH": 88144, "BSTAR": 0.001264841, "MEAN_MOTION_DOT": 4.523e-05, "MEAN_MOTION_DDOT": 0}, "tle": {"line1": "1 33870U 97051AP  25347.24204061  .00004523  00000+0  12648-2 0  9999", "line2": "2 33870  86.3747  58.0454 0021526 176.4535 242.6434 14.45858080881444"}}, "geometry": {"type": "Point", "coordinates": [-122.72690422640115, 5.929975594974156]}}, {"type": "Feature", "properties": {"norad_id": 33881, "name": "IRIDIUM 33 DEB", "group": "iridium-33-debris", "lat": 82.5830428850285, "lon": -102.92209905852023, "alt_km": 684.0530720926163, "timestamp": "2025-12-14T03:55:53.172395+00:00", "meta": {"OBJECT_NAME": "IRIDIUM 33 DEB", "OBJECT_ID": "1997-051BA", "EPOCH": "2025-12-12T20:44:34.160064", "MEAN_MOTION": 14.56580115, "ECCENTRICITY": 0.00614774, "INCLINATION": 86.386, "RA_OF_ASC_NODE": 106.688, "ARG_OF_PERICENTER": 174.2575, "MEAN_ANOMALY": 312.8923, "EPHEMERIS_TYPE": 0, "CLASSIFICATION_TYPE": "U", "NORAD_CAT_ID": 33881, "ELEMENT_SET_NO": 999, "REV_AT_EPOCH": 87502, "BSTAR": 0.0029090171, "MEAN_MOTION_DOT": 0.00013329, "MEAN_MOTION_DDOT": 0}, "tle": {"line1": "1 33881U 97051BA  25346.86428426  .00013329  00000+0  29090-2 0  9994", "line2": "2 33881  86.3860 106.6880 0061477 174.2575 312.8923 14.56580115875027"}}, "geometry": {"type": "Point", "coordinates": [-102.92209905852023, 82.5830428850285]}}, {"type": "Feature", "properties": {"norad_id": 33884, "name": "IRIDIUM 33 DEB", "group": "iridium-33-debris", "lat": 29.296018621758133, "lon": -172.86491868175216, "alt_km": 642.7358612313901, "timestamp": "2025-12-14T03:55:53.172407+00:00", "meta": {"OBJECT_NAME": "IRIDIUM 33 DEB", "OBJECT_ID": "1997-051BD", "EPOCH": "2025-12-13T01:29:50.844192", "MEAN_MOTION": 14.77439529, "ECCENTRICITY": 0.00097723, "INCLINATION": 86.3705, "RA_OF_ASC_NODE": 9.673, "ARG_OF_PERICENTER": 322.5896, "MEAN_ANOMALY": 93.5713, "EPHEMERIS_TYPE": 0, "CLASSIFICATION_TYPE": "U", "NORAD_CAT_ID": 33884, "ELEMENT_SET_NO": 999, "REV_AT_EPOCH": 88852, "BSTAR": 0.0019383044, "MEAN_MOTION_DOT": 0.00013847, "MEAN_MOTION_DDOT": 0}, "tle": {"line1": "1 33884U 97051BD  25347.06239403  .00013847  00000+0  19383-2 0  9994", "line2": "2 33884  86.3705   9.6730 0009772 322.5896  93.5713 14.77439529888522"}}, "geometry": {"type": "Point", "coordinates": [-172.86491868175216, 29.296018621758133]}}, {"type": "Feature", "properties": {"norad_id": 33886, "name": "IRIDIUM 33 DEB", "group": "iridium-33-debris", "lat": -44.33721393887302, "lon": -109.8269269488923, "alt_km": 769.7363265076356, "timestamp": "2025-12-14T03:55:53.172418+00:00", "meta": {"OBJECT_NAME": "IRIDIUM 33 DEB", "OBJECT_ID": "1997-051BF", "EPOCH": "2025-12-13T07:07:22.747584", "MEAN_MOTION": 14.36053313, "ECCENTRICITY": 0.00123433, "INCLINATION": 86.383, "RA_OF_ASC_NODE": 66.9944, "ARG_OF_PERICENTER": 239.9736, "MEAN_ANOMALY": 184.9432, "EPHEMERIS_TYPE": 0, "CLASSIFICATION_TYPE": "U", "NORAD_CAT_ID": 33886, "ELEMENT_SET_NO": 999, "REV_AT_EPOCH": 88060, "BSTAR": 0.0003088149, "MEAN_MOTION_DOT": 9.18e-06, "MEAN_MOTION_DDOT": 0}, "tle": {"line1": "1 33886U 97051BF  25347.29679106  .00000918  00000+0  30881-3 0  9991", "line2": "2 33886  86.3830  66.9944 0012343 239.9736 184.9432 14.36053313880600"}}, "geometry": {"type": "Point", "coordinates": [-109.8269269488923, -44.33721393887302]}}, {"type": "Feature", "properties": {"norad_id": 33887, "name": "IRIDIUM 33 DEB", "group": "iridium-33-debris", "lat": 13.271058118220552, "lon": -178.0946687698714, "alt_km": 767.013827984867, "timestamp": "2025-12-14T03:55:53.172429+00:00", "meta": {"OBJECT_NAME": "IRIDIUM 33 DEB", "OBJECT_ID": "1997-051BG", "EPOCH": "2025-12-13T07:10:25.497408", "MEAN_MOTION": 14.37221847, "ECCENTRICITY": 0.00044851, "INCLINATION": 86.3045, "RA_OF_ASC_NODE": 3.1513, "ARG_OF_PERICENTER": 224.2117, "MEAN_ANOMALY": 150.2384, "EPHEMERIS_TYPE": 0, "CLASSIFICATION_TYPE": "U", "NORAD_CAT_ID": 33887, "ELEMENT_SET_NO": 999, "REV_AT_EPOCH": 88173, "BSTAR": 0.00022245622, "MEAN_MOTION_DOT": 6.82e-06, "MEAN_MOTION_DDOT": 0}, "tle": {"line1": "1 33887U 97051BG  25347.29890622  .00000682  00000+0  22246-3 0  9994", "line2": "2 33887  86.3045   3.1513 0004485 224.2117 150.2384 14.37221847881739"}}, "geometry": {"type": "Point", "coordinates": [-178.0946687698714, 13.271058118220552]}}, {"type": "Feature", "properties": {"norad_id": 33953, "name": "IRIDIUM 33 DEB", "group": "iridium-33-debris", "lat": 64.77534695703378, "lon": -134.55221687125146, "alt_km": 689.5559965636148, "timestamp": "2025-12-14T03:55:53.172439+00:00", "meta": {"OBJECT_NAME": "IRIDIUM 33 DEB", "OBJECT_ID": "1997-051BN", "EPOCH": "2025-12-13T04:24:05.697792", "MEAN_MOTION": 14.55334643, "ECCENTRICITY": 0.00183369, "INCLINATION": 86.3845, "RA_OF_ASC_NODE": 53.5865, "ARG_OF_PERICENTER": 101.5193, "MEAN_ANOMALY": 280.0666, "EPHEMERIS_TYPE": 0, "CLASSIFICATION_TYPE": "U", "NORAD_CAT_ID": 33953, "ELEMENT_SET_NO": 999, "REV_AT_EPOCH": 88310, "BSTAR": 0.0017454245, "MEAN_MOTION_DOT": 7.608e-05, "MEAN_MOTION_DDOT": 0}, "tle": {"line1": "1 33953U 97051BN  25347.18339928  .00007608  00000+0  17454-2 0  9992", "line2": "2 33953  86.3845  53.5865 0018336 101.5193 280.0666 14.55334643883108"}}, "geometry": {"type": "Point", "coordinates": [-134.55221687125146, 64.77534695703378]}}, {"type": "Feature", "properties": {"norad_id": 33960, "name": "IRIDIUM 33 DEB", "group": "iridium-33-debris", "lat": 71.90159487311271, "lon": -59.58934283185346, "alt_km": 600.6567841165433, "timestamp": "2025-12-14T03:55:53.172450+00:00", "meta": {"OBJECT_NAME": "IRIDIUM 33 DEB", "OBJECT_ID": "1997-051BV", "EPOCH": "2025-12-13T07:18:21.170016", "MEAN_MOTION": 14.85250874, "ECCENTRICITY": 0.00074314, "INCLINATION": 86.253, "RA_OF_ASC_NODE": 289.2483, "ARG_OF_PERICENTER": 61.837, "MEAN_ANOMALY": 98.2531, "EPHEMERIS_TYPE": 0, "CLASSIFICATION_TYPE": "U", "NORAD_CAT_ID": 33960, "ELEMENT_SET_NO": 999, "REV_AT_EPOCH": 88875, "BSTAR": 0.00543303, "MEAN_MOTION_DOT": 0.00046916, "MEAN_MOTION_DDOT": 0}, "tle": {"line1": "1 33960U 97051BV  25347.30441169  .00046916  00000+0  54330-2 0  9994", "line2": "2 33960  86.2530 289.2483 0007431  61.8370  98.2531 14.85250874888751"}}, "geometry": {"type": "Point", "coordinates": [-59.58934283185346, 71.90159487311271]}}, {"type": "Feature", "properties": {"norad_id": 33966, "name": "IRIDIUM 33 DEB", "group": "iridium-33-debris", "lat": -31.612102078314134, "lon": -132.3585368167052, "alt_km": 728.3977423594142, "timestamp": "2025-12-14T03:55:53.172461+00:00", "meta": {"OBJECT_NAME": "IRIDIUM 33 DEB", "OBJECT_ID": "1997-051CB", "EPOCH": "2025-12-13T05:44:28.996800", "MEAN_MOTION": 14.49599093, "ECCENTRICITY": 0.00074858, "INCLINATION": 86.3926, "RA_OF_ASC_NODE": 45.8128, "ARG_OF_PERICENTER": 186.3749, "MEAN_ANOMALY": 243.2399, "EPHEMERIS_TYPE": 0, "CLASSIFICATION_TYPE": "U", "NORAD_CAT_ID": 33966, "ELEMENT_SET_NO": 999, "REV_AT_EPOCH": 88449, "BSTAR": 0.00088628726, "MEAN_MOTION_DOT": 3.422e-05, "MEAN_MOTION_DDOT": 0}, "tle": {"line1": "1 33966U 97051CB  25347.23922450  .00003422  00000+0  88629-3 0  9993", "line2": "2 33966  86.3926  45.8128 0007485 186.3749 243.2399 14.49599093884491"}}, "geometry": {"type": "Point", "coordinates": [-132.3585368167052, -31.612102078314134]}}, {"type": "Feature", "properties": {"norad_id": 34071, "name": "IRIDIUM 33 DEB", "group": "iridium-33-debris", "lat": -81.88890070457393, "lon": -9.42942634046347, "alt_km": 741.8346302612426, "timestamp": "2025-12-14T03:55:53.172472+00:00", "meta": {"OBJECT_NAME": "IRIDIUM 33 DEB", "OBJECT_ID": "1997-051CE", "EPOCH": "2025-12-13T03:27:38.801376", "MEAN_MOTION": 14.49468179, "ECCENTRICITY": 0.00099339, "INCLINATION": 86.3461, "RA_OF_ASC_NODE": 17.6526, "ARG_OF_PERICENTER": 106.547, "MEAN_ANOMALY": 253.6826, "EPHEMERIS_TYPE": 0, "CLASSIFICATION_TYPE": "U", "NORAD_CAT_ID": 34071, "ELEMENT_SET_NO": 999, "REV_AT_EPOCH": 88340, "BSTAR": 0.00089989744, "MEAN_MOTION_DOT": 3.466e-05, "MEAN_MOTION_DDOT": 0}, "tle": {"line1": "1 34071U 97051CE  25347.14419909  .00003466  00000+0  89990-3 0  9991", "line2": "2 34071  86.3461  17.6526 0009933 106.5470 253.6826 14.49468179883407"}}, "geometry": {"type": "Point", "coordinates": [-9.42942634046347, -81.88890070457393]}}]}